NORAD_CAT_ID,OBJECT_NAME,OBJECT_TYPE,EPOCH,MEAN_MOTION,ECCENTRICITY,INCLINATION,RA_OF_ASC_NODE,ARG_OF_PERICENTER,MEAN_ANOMALY,BSTAR,MEAN_MOTION_DOT,MEAN_MOTION_DDOT,TLE_LINE0,TLE_LINE1,TLE_LINE2,SEMIMAJOR_AXIS,PERIOD,APOGEE,PERIGEE,DECAYED
51721.0,STARLINK-3524,PAYLOAD,2023-12-09 14:49:13,15.0884282,0.0001428,53.2191,55.0677,93.3165,266.7991,9.9696e-05,1.299e-05,0.0,0 STARLINK-3524,1 51721U 22016H   23343.61751400  .00001299  00000-0  99696-4 0  9990,2 51721  53.2191  55.0677 0001428  93.3165 266.7991 15.08842820 99478,6917.872,95.437,540.725,538.749,0.0
51721.0,STARLINK-3524,PAYLOAD,2023-12-11 11:20:01,15.0884107,0.0001434,53.2186,46.7396,97.2937,262.8218,4.9035e-05,4.93e-06,0.0,0 STARLINK-3524,1 51721U 22016H   23345.47223646  .00000493  00000-0  49035-4 0  9999,2 51721  53.2186  46.7396 0001434  97.2937 262.8218 15.08841070100876,6917.877,95.437,540.734,538.75,0.0
51721.0,STARLINK-3524,PAYLOAD,2023-12-12 09:35:25,15.08834926,0.000149,53.2184,42.5816,103.0617,257.0541,3.1631e-05,2.15e-06,0.0,0 STARLINK-3524,1 51721U 22016H   23346.39960278  .00000215  00000-0  31631-4 0  9995,2 51721  53.2184  42.5816 0001490 103.0617 257.0541 15.08834926101012,6917.896,95.438,540.792,538.73,0.0
51721.0,STARLINK-3524,PAYLOAD,2023-12-13 11:01:33,15.08864433,0.0001332,53.2179,37.8218,107.7523,252.3615,0.00026617,3.953e-05,0.0,0 STARLINK-3524,1 51721U 22016H   23347.45941986  .00003953  00000-0  26617-3 0  9997,2 51721  53.2179  37.8218 0001332 107.7523 252.3615 15.08864433101174,6917.806,95.436,540.592,538.749,0.0
51721.0,STARLINK-3524,PAYLOAD,2023-12-14 10:52:22,15.08838227,0.0001281,53.218,33.3605,110.8415,249.2714,2.7597e-05,1.51e-06,0.0,0 STARLINK-3524,1 51721U 22016H   23348.45304092  .00000151  00000-0  27597-4 0  9995,2 51721  53.2180  33.3605 0001281 110.8415 249.2714 15.08838227101329,6917.886,95.438,540.637,538.865,0.0
51721.0,STARLINK-3524,PAYLOAD,2023-12-15 09:07:45,15.08870956,0.0001285,53.2186,29.2001,87.9092,272.2047,-0.00023409,-4.015e-05,0.0,0 STARLINK-3524,1 51721U 22016H   23349.38039220 -.00004015  00000-0 -23409-3 0  9998,2 51721  53.2186  29.2001 0001285  87.9092 272.2047 15.08870956101463,6917.786,95.436,540.54,538.762,0.0
51721.0,STARLINK-3524,PAYLOAD,2023-12-15 23:26:15,15.08835032,0.0001757,53.2184,26.5307,64.5468,295.5706,8.324e-05,1.037e-05,0.0,0 STARLINK-3524,1 51721U 22016H   23349.97656412  .00001037  00000-0  83240-4 0  9990,2 51721  53.2184  26.5307 0001757  64.5468 295.5706 15.08835032101558,6917.896,95.438,540.976,538.545,0.0
51721.0,STARLINK-3524,PAYLOAD,2023-12-16 08:58:34,15.08832906,0.0001729,53.2178,24.744,66.7036,293.4138,5.7243e-05,6.23e-06,0.0,0 STARLINK-3524,1 51721U 22016H   23350.37400777  .00000623  00000-0  57243-4 0  9991,2 51721  53.2178  24.7440 0001729  66.7036 293.4138 15.08832906100498,6917.902,95.438,540.963,538.571,0.0
51721.0,STARLINK-3524,PAYLOAD,2023-12-17 08:49:21,15.08839114,0.000155,53.2176,20.2796,85.4532,274.6637,1.9537e-08,-2.88e-06,0.0,0 STARLINK-3524,1 51721U 22016H   23351.36760638 -.00000288  00000-0  19537-7 0  9991,2 51721  53.2176  20.2796 0001550  85.4532 274.6637 15.08839114101766,6917.883,95.438,540.82,538.676,0.0
51721.0,STARLINK-3524,PAYLOAD,2023-12-18 08:40:07,15.08847306,0.0001652,53.2182,15.8215,98.1883,261.9297,0.00018217,2.613e-05,0.0,0 STARLINK-3524,1 51721U 22016H   23352.36119631  .00002613  00000-0  18217-3 0  9996,2 51721  53.2182  15.8215 0001652  98.1883 261.9297 15.08847306101912,6917.858,95.437,540.866,538.58,0.0
51721.0,STARLINK-3524,PAYLOAD,2023-12-19 08:30:55,15.08832539,0.0001531,53.2179,11.3588,108.9762,251.1396,4.7993e-05,4.76e-06,0.0,0 STARLINK-3524,1 51721U 22016H   23353.35481278  .00000476  00000-0  47993-4 0  9994,2 51721  53.2179  11.3588 0001531 108.9762 251.1396 15.08832539102064,6917.903,95.438,540.827,538.709,0.0
51721.0,STARLINK-3524,PAYLOAD,2023-12-20 08:21:42,15.08842594,0.0001453,53.2178,6.898,89.9635,270.1524,1.9742e-05,2.6e-07,0.0,0 STARLINK-3524,1 51721U 22016H   23354.34840879  .00000026  00000-0  19742-4 0  9992,2 51721  53.2178   6.8980 0001453  89.9635 270.1524 15.08842594102211,6917.872,95.437,540.743,538.732,0.0
51721.0,STARLINK-3524,PAYLOAD,2023-12-21 08:12:30,15.08826319,0.0001857,53.2187,2.4354,67.1239,292.9949,0.0010003,0.00015662,0.0,0 STARLINK-3524,1 51721U 22016H   23355.34202157  .00015662  00000-0  10003-2 0  9995,2 51721  53.2187   2.4354 0001857  67.1239 292.9949 15.08826319102360,6917.922,95.438,541.072,538.503,0.0
51721.0,STARLINK-3524,PAYLOAD,2023-12-22 08:03:17,15.0884193,0.0001862,53.2182,357.9759,68.9356,291.1835,8.632e-05,1.086e-05,0.0,0 STARLINK-3524,1 51721U 22016H   23356.33561367  .00001086  00000-0  86320-4 0  9998,2 51721  53.2182 357.9759 0001862  68.9356 291.1835 15.08841930101390,6917.874,95.437,541.028,538.451,0.0
51721.0,STARLINK-3524,PAYLOAD,2023-12-23 09:29:27,15.08841016,0.0002024,53.2188,353.2091,73.2726,286.8488,0.00015737,2.217e-05,0.0,0 STARLINK-3524,1 51721U 22016H   23357.39545725  .00002217  00000-0  15737-3 0  9995,2 51721  53.2188 353.2091 0002024  73.2726 286.8488 15.08841016102677,6917.877,95.437,541.142,538.342,0.0
51721.0,STARLINK-3524,PAYLOAD,2023-12-24 09:20:14,15.08848607,0.0001722,53.217,348.7552,98.4581,261.6607,0.0002799,4.17e-05,0.0,0 STARLINK-3524,1 51721U 22016H   23358.38905469  .00004170  00000-0  27990-3 0  9994,2 51721  53.2170 348.7552 0001722  98.4581 261.6607 15.08848607101701,6917.854,95.437,540.91,538.528,0.0
51721.0,STARLINK-3524,PAYLOAD,2023-12-25 02:49:28,15.08843341,0.0001793,53.217,345.482,106.2874,253.8316,7.206e-05,8.59e-06,0.0,0 STARLINK-3524,1 51721U 22016H   23359.11769658  .00000859  00000-0  72060-4 0  9993,2 51721  53.2170 345.4820 0001793 106.2874 253.8316 15.08843341102930,6917.87,95.437,540.976,538.495,0.0
51721.0,STARLINK-3524,PAYLOAD,2023-12-25 09:11:01,15.08848201,0.0001765,53.2182,344.2902,97.2134,262.9059,0.0001574,2.218e-05,0.0,0 STARLINK-3524,1 51721U 22016H   23359.38265349  .00002218  00000-0  15740-3 0  9992,2 51721  53.2182 344.2902 0001765  97.2134 262.9059 15.08848201101853,6917.855,95.437,540.941,538.499,0.0
51721.0,STARLINK-3524,PAYLOAD,2023-12-26 05:51:02,15.08841614,0.0001812,53.2174,340.4277,113.1877,246.9306,1.0984e-05,-1.13e-06,0.0,0 STARLINK-3524,1 51721U 22016H   23360.24377610 -.00000113  00000-0  10984-4 0  9993,2 51721  53.2174 340.4277 0001812 113.1877 246.9306 15.08841614103100,6917.875,95.437,540.994,538.487,0.0
51721.0,STARLINK-3524,PAYLOAD,2023-12-26 21:44:53,15.08839118,0.0001688,53.2177,337.4595,102.4208,257.6973,7.2898e-05,8.72e-06,0.0,0 STARLINK-3524,1 51721U 22016H   23360.90617918  .00000872  00000-0  72898-4 0  9997,2 51721  53.2177 337.4595 0001688 102.4208 257.6973 15.08839118102083,6917.883,95.438,540.916,538.58,0.0
51721.0,STARLINK-3524,PAYLOAD,2023-12-27 07:17:12,15.08845585,0.0001602,53.2178,335.6722,100.6681,259.4492,2.183e-05,5.9e-07,0.0,0 STARLINK-3524,1 51721U 22016H   23361.30361589  .00000059  00000-0  21830-4 0  9999,2 51721  53.2178 335.6722 0001602 100.6681 259.4492 15.08845585103269,6917.863,95.437,540.837,538.62,0.0
51721.0,STARLINK-3524,PAYLOAD,2023-12-28 03:57:13,15.08837741,0.0001691,53.2199,331.8081,108.3815,251.7361,6.6205e-05,7.66e-06,0.0,0 STARLINK-3524,1 51721U 22016H   23362.16474511  .00000766  00000-0  66205-4 0  9994,2 51721  53.2199 331.8081 0001691 108.3815 251.7361 15.08837741103399,6917.887,95.438,540.922,538.582,0.0
51721.0,STARLINK-3524,PAYLOAD,2023-12-28 07:07:59,15.08841702,0.0001693,53.22,331.2156,106.1329,253.985,9.7178e-05,1.259e-05,0.0,0 STARLINK-3524,1 51721U 22016H   23362.29722218  .00001259  00000-0  97178-4 0  9999,2 51721  53.2200 331.2156 0001693 106.1329 253.9850 15.08841702102294,6917.875,95.437,540.911,538.569,0.0
51721.0,STARLINK-3524,PAYLOAD,2023-12-29 06:58:47,15.08841154,0.0001566,53.2191,326.7504,99.1336,260.9833,0.00020131,2.917e-05,0.0,0 STARLINK-3524,1 51721U 22016H   23363.29082257  .00002917  00000-0  20131-3 0  9998,2 51721  53.2191 326.7504 0001566  99.1336 260.9833 15.08841154103568,6917.877,95.437,540.825,538.659,0.0
51721.0,STARLINK-3524,PAYLOAD,2023-12-30 06:49:33,15.08848611,0.0001612,53.2196,322.2845,84.8501,275.2675,0.00016836,2.393e-05,0.0,0 STARLINK-3524,1 51721U 22016H   23364.28441639  .00002393  00000-0  16836-3 0  9996,2 51721  53.2196 322.2845 0001612  84.8501 275.2675 15.08848611102599,6917.854,95.437,540.834,538.604,0.0
51721.0,STARLINK-3524,PAYLOAD,2023-12-31 03:29:34,15.08846207,0.0001744,53.2204,318.4122,114.0895,246.028,7.0987e-06,-1.75e-06,0.0,0 STARLINK-3524,1 51721U 22016H   23365.14553951 -.00000175  00000-0  70987-5 0  9999,2 51721  53.2204 318.4122 0001744 114.0895 246.0280 15.08846207103848,6917.861,95.437,540.933,538.52,0.0
51721.0,STARLINK-3524,PAYLOAD,2023-12-31 06:40:21,15.08842862,0.0001635,53.2189,317.824,90.2533,269.8647,2.5879e-05,1.24e-06,0.0,0 STARLINK-3524,1 51721U 22016H   23365.27802271  .00000124  00000-0  25879-4 0  9997,2 51721  53.2189 317.8240 0001635  90.2533 269.8647 15.08842862102748,6917.872,95.437,540.868,538.606,0.0
51721.0,STARLINK-3524,PAYLOAD,2024-01-01 03:20:22,15.08834055,0.0001674,53.2191,313.9587,110.7353,249.3818,2.1924e-05,6.1e-07,0.0,0 STARLINK-3524,1 51721U 22016H   24001.13914744  .00000061  00000-0  21924-4 0  9996,2 51721  53.2191 313.9587 0001674 110.7353 249.3818 15.08834055103999,6917.899,95.438,540.922,538.606,0.0
51721.0,STARLINK-3524,PAYLOAD,2024-01-01 06:31:08,15.08840157,0.0001738,53.2195,313.366,105.3932,254.7252,-7.2723e-05,-1.445e-05,0.0,0 STARLINK-3524,1 51721U 22016H   24001.27162751 -.00001445  00000-0 -72723-4 0  9996,2 51721  53.2195 313.3660 0001738 105.3932 254.7252 15.08840157102893,6917.88,95.438,540.947,538.543,0.0
51721.0,STARLINK-3524,PAYLOAD,2024-01-02 03:11:08,15.08853864,0.0001624,53.219,309.5032,85.9228,274.195,9.7701e-05,1.268e-05,0.0,0 STARLINK-3524,1 51721U 22016H   24002.13273521  .00001268  00000-0  97701-4 0  9994,2 51721  53.2190 309.5032 0001624  85.9228 274.1950 15.08853864104143,6917.838,95.437,540.826,538.58,0.0
